[{"OBJECT_NAME":"STARLINK-4605","OBJECT_ID":"2022-104AE","EPOCH":"2026-03-09T18:01:28.826976","MEAN_MOTION":15.0883295,"ECCENTRICITY":0.00011851,"INCLINATION":53.2171,"RA_OF_ASC_NODE":223.7215,"ARG_OF_PERICENTER":77.6786,"MEAN_ANOMALY":282.4339,"EPHEMERIS_TYPE":0,"CLASSIFICATION_TYPE":"U","NORAD_CAT_ID":53616,"ELEMENT_SET_NO":999,"REV_AT_EPOCH":19589,"BSTAR":0.00017685834,"MEAN_MOTION_DOT":2.527e-5,"MEAN_MOTION_DDOT":0},{"OBJECT_NAME":"JILIN-1 KUANFU 02A","OBJECT_ID":"2023-127A","EPOCH":"2026-03-09T22:42:00.221760","MEAN_MOTION":15.09948681,"ECCENTRICITY":0.0009702,"INCLINATION":97.5529,"RA_OF_ASC_NODE":164.1218,"ARG_OF_PERICENTER":318.2814,"MEAN_ANOMALY":41.7675,"EPHEMERIS_TYPE":0,"CLASSIFICATION_TYPE":"U","NORAD_CAT_ID":57696,"ELEMENT_SET_NO":999,"REV_AT_EPOCH":14065,"BSTAR":0.00045097028,"MEAN_MOTION_DOT":7.263e-5,"MEAN_MOTION_DDOT":0}]
